NORAD_CAT_ID,OBJECT_NAME,OBJECT_TYPE,EPOCH,MEAN_MOTION,ECCENTRICITY,INCLINATION,RA_OF_ASC_NODE,ARG_OF_PERICENTER,MEAN_ANOMALY,BSTAR,MEAN_MOTION_DOT,MEAN_MOTION_DDOT,TLE_LINE0,TLE_LINE1,TLE_LINE2,SEMIMAJOR_AXIS,PERIOD,APOGEE,PERIGEE,DECAYED
53737.0,STARLINK-4646,PAYLOAD,2023-08-10 06:43:03,15.08853795,0.0001227,53.2159,174.6129,98.4511,261.662,4.4048e-05,4.13e-06,0.0,0 STARLINK-4646,1 53737U 22107AP  23222.27989904  .00000413  00000-0  44048-4 0  9998,2 53737  53.2159 174.6129 0001227  98.4511 261.6620 15.08853795 51541,6917.838,95.437,540.552,538.854,0.0
53737.0,STARLINK-4646,PAYLOAD,2023-08-11 03:23:04,15.08837337,0.0001269,53.2143,170.7477,91.4511,268.6626,8.9361e-05,1.134e-05,0.0,0 STARLINK-4646,1 53737U 22107AP  23223.14102729  .00001134  00000-0  89361-4 0  9995,2 53737  53.2143 170.7477 0001269  91.4511 268.6626 15.08837337 51677,6917.889,95.438,540.631,538.876,0.0
53737.0,STARLINK-4646,PAYLOAD,2023-08-12 12:46:10,15.08835701,0.0001021,53.2161,164.5044,99.3639,260.7469,7.1495e-05,8.5e-06,0.0,0 STARLINK-4646,1 53737U 22107AP  23224.53207045  .00000850  00000-0  71495-4 0  9999,2 53737  53.2161 164.5044 0001021  99.3639 260.7469 15.08835701 51886,6917.894,95.438,540.465,539.052,0.0
53737.0,STARLINK-4646,PAYLOAD,2023-08-13 23:44:40,15.08834168,0.0001304,53.2183,157.9652,115.9576,244.155,5.1348e-06,-2.06e-06,0.0,0 STARLINK-4646,1 53737U 22107AP  23225.98935925 -.00000206  00000-0  51348-5 0  9996,2 53737  53.2183 157.9652 0001304 115.9576 244.1550 15.08834168 52109,6917.898,95.438,540.665,538.861,0.0
53737.0,STARLINK-4646,PAYLOAD,2023-08-15 01:10:50,15.08840117,8.08e-05,53.2173,153.2017,91.2359,268.8726,7.0985e-05,8.42e-06,0.0,0 STARLINK-4646,1 53737U 22107AP  23227.04919498  .00000842  00000-0  70985-4 0  9994,2 53737  53.2173 153.2017 0000808  91.2359 268.8726 15.08840117 52261,6917.88,95.438,540.304,539.186,0.0
53737.0,STARLINK-4646,PAYLOAD,2023-08-15 04:21:36,15.08847528,0.0001139,53.2179,152.6108,96.5244,263.5878,0.00010045,1.312e-05,0.0,0 STARLINK-4646,1 53737U 22107AP  23227.18167013  .00001312  00000-0  10045-3 0  9990,2 53737  53.2179 152.6108 0001139  96.5244 263.5878 15.08847528 52285,6917.857,95.437,540.51,538.934,0.0
53737.0,STARLINK-4646,PAYLOAD,2023-08-16 01:01:37,15.08840701,0.0001216,53.2183,148.7436,98.7721,261.3409,2.1328e-06,-2.54e-06,0.0,0 STARLINK-4646,1 53737U 22107AP  23228.04279820 -.00000254  00000-0  21328-5 0  9999,2 53737  53.2183 148.7436 0001216  98.7721 261.3409 15.08840701 52417,6917.878,95.438,540.584,538.902,0.0
53737.0,STARLINK-4646,PAYLOAD,2023-08-17 04:03:10,15.08854006,0.0001275,53.2172,143.6888,98.3965,261.7172,8.6917e-05,1.096e-05,0.0,0 STARLINK-4646,1 53737U 22107AP  23229.16886620  .00001096  00000-0  86917-4 0  9993,2 53737  53.2172 143.6888 0001275  98.3965 261.7172 15.08854006 52583,6917.838,95.437,540.585,538.821,0.0
53737.0,STARLINK-4646,PAYLOAD,2023-08-17 18:21:39,15.08842503,0.0001211,53.2173,141.0127,81.6302,278.4827,6.4534e-06,-1.85e-06,0.0,0 STARLINK-4646,1 53737U 22107AP  23229.76503594 -.00000185  00000-0  64534-5 0  9996,2 53737  53.2173 141.0127 0001211  81.6302 278.4827 15.08842503 52673,6917.873,95.437,540.575,538.9,0.0
53737.0,STARLINK-4646,PAYLOAD,2023-08-18 00:43:10,15.08852088,0.0001161,53.2174,139.824,94.7183,265.3941,9.8373e-05,1.279e-05,0.0,0 STARLINK-4646,1 53737U 22107AP  23230.02998561  .00001279  00000-0  98373-4 0  9990,2 53737  53.2174 139.8240 0001161  94.7183 265.3941 15.08852088 52717,6917.843,95.437,540.512,538.905,0.0
53737.0,STARLINK-4646,PAYLOAD,2023-08-18 03:53:56,15.08858143,0.00012,53.2178,139.2291,92.8184,267.2945,0.00012713,1.737e-05,0.0,0 STARLINK-4646,1 53737U 22107AP  23230.16246014  .00001737  00000-0  12713-3 0  9996,2 53737  53.2178 139.2291 0001200  92.8184 267.2945 15.08858143 52730,6917.825,95.436,540.52,538.86,0.0
53737.0,STARLINK-4646,PAYLOAD,2023-08-19 03:44:45,15.08840232,0.0001163,53.2173,134.768,95.0057,265.1068,-4.9061e-05,-1.069e-05,0.0,0 STARLINK-4646,1 53737U 22107AP  23231.15607937 -.00001069  00000-0 -49061-4 0  9998,2 53737  53.2173 134.7680 0001163  95.0057 265.1068 15.08840232 52888,6917.88,95.438,540.549,538.94,0.0
53737.0,STARLINK-4646,PAYLOAD,2023-08-20 17:54:00,15.08837344,0.0001078,53.2176,127.6315,90.546,269.5656,0.00010056,1.313e-05,0.0,0 STARLINK-4646,1 53737U 22107AP  23232.74584318  .00001313  00000-0  10056-3 0  9992,2 53737  53.2176 127.6315 0001078  90.5460 269.5656 15.08837344 53129,6917.889,95.438,540.499,539.008,0.0
53737.0,STARLINK-4646,PAYLOAD,2023-08-21 01:50:55,15.08849781,0.0001169,53.2176,126.1444,89.9581,270.1545,0.0002155,3.144e-05,0.0,0 STARLINK-4646,1 53737U 22107AP  23233.07703318  .00003144  00000-0  21550-3 0  9997,2 53737  53.2176 126.1444 0001169  89.9581 270.1545 15.08849781 53171,6917.85,95.437,540.524,538.907,0.0
53737.0,STARLINK-4646,PAYLOAD,2023-08-22 00:06:20,15.08841102,0.0001254,53.2168,121.98,105.2277,254.8853,6.8553e-05,8.03e-06,0.0,0 STARLINK-4646,1 53737U 22107AP  23234.00440545  .00000803  00000-0  68553-4 0  9995,2 53737  53.2168 121.9800 0001254 105.2277 254.8853 15.08841102 53316,6917.877,95.437,540.61,538.875,0.0
53737.0,STARLINK-4646,PAYLOAD,2023-08-23 01:32:30,15.08847669,0.0001267,53.2173,117.2216,88.2367,271.8771,3.773e-05,3.13e-06,0.0,0 STARLINK-4646,1 53737U 22107AP  23235.06424379  .00000313  00000-0  37730-4 0  9998,2 53737  53.2173 117.2216 0001267  88.2367 271.8771 15.08847669 53474,6917.857,95.437,540.598,538.845,0.0
53737.0,STARLINK-4646,PAYLOAD,2023-08-24 01:23:17,15.08846148,0.0001191,53.2172,112.7613,94.9267,265.1861,0.00013873,1.921e-05,0.0,0 STARLINK-4646,1 53737U 22107AP  23236.05784308  .00001921  00000-0  13873-3 0  9996,2 53737  53.2172 112.7613 0001191  94.9267 265.1861 15.08846148 54404,6917.862,95.437,540.551,538.903,0.0
53737.0,STARLINK-4646,PAYLOAD,2023-08-25 18:43:19,15.08846109,0.0001302,53.2174,105.0302,88.7843,271.3298,5.3859e-05,5.7e-06,0.0,0 STARLINK-4646,1 53737U 22107AP  23237.78008480  .00000570  00000-0  53859-4 0  9995,2 53737  53.2174 105.0302 0001302  88.7843 271.3298 15.08846109 53882,6917.862,95.437,540.627,538.826,0.0
53737.0,STARLINK-4646,PAYLOAD,2023-08-25 20:18:42,15.08846594,0.0001351,53.2175,104.733,86.3565,273.7582,5.6254e-05,6.08e-06,0.0,0 STARLINK-4646,1 53737U 22107AP  23237.84632412  .00000608  00000-0  56254-4 0  9994,2 53737  53.2175 104.7330 0001351  86.3565 273.7582 15.08846594 54677,6917.86,95.437,540.66,538.791,0.0
53737.0,STARLINK-4646,PAYLOAD,2023-08-26 01:04:51,15.08846537,0.000136,53.2174,103.8411,86.4513,273.6635,4.6176e-05,4.47e-06,0.0,0 STARLINK-4646,1 53737U 22107AP  23238.04504303  .00000447  00000-0  46176-4 0  9997,2 53737  53.2174 103.8411 0001360  86.4513 273.6635 15.08846537 54709,6917.86,95.437,540.666,538.785,0.0
53737.0,STARLINK-4646,PAYLOAD,2023-08-26 18:34:06,15.08836269,0.0001384,53.2174,100.5712,103.513,256.6016,1.1143e-05,-1.11e-06,0.0,0 STARLINK-4646,1 53737U 22107AP  23238.77369100 -.00000111  00000-0  11143-4 0  9996,2 53737  53.2174 100.5712 0001384 103.5130 256.6016 15.08836269 54030,6917.892,95.438,540.714,538.799,0.0
53737.0,STARLINK-4646,PAYLOAD,2023-08-26 20:09:29,15.08835024,0.0001497,53.2176,100.2742,103.0708,257.0451,3.4077e-05,2.54e-06,0.0,0 STARLINK-4646,1 53737U 22107AP  23238.83993024  .00000254  00000-0  34077-4 0  9999,2 53737  53.2176 100.2742 0001497 103.0708 257.0451 15.08835024 54826,6917.896,95.438,540.796,538.725,0.0
53737.0,STARLINK-4646,PAYLOAD,2023-08-26 21:44:52,15.08836509,0.0001687,53.2176,99.9768,114.2276,245.8892,4.5336e-05,4.33e-06,0.0,0 STARLINK-4646,1 53737U 22107AP  23238.90616878  .00000433  00000-0  45336-4 0  9995,2 53737  53.2176  99.9768 0001687 114.2276 245.8892 15.08836509 54837,6917.891,95.438,540.923,538.589,0.0
53737.0,STARLINK-4646,PAYLOAD,2023-08-27 20:00:16,15.08839335,0.0001472,53.2176,95.8137,101.9342,258.1816,6.3858e-05,7.28e-06,0.0,0 STARLINK-4646,1 53737U 22107AP  23239.83352940  .00000728  00000-0  63858-4 0  9991,2 53737  53.2176  95.8137 0001472 101.9342 258.1816 15.08839335 54979,6917.882,95.438,540.766,538.729,0.0
53737.0,STARLINK-4646,PAYLOAD,2023-08-27 23:11:02,15.08843858,0.0001358,53.2172,95.2189,96.1033,264.0114,7.9022e-05,9.7e-06,0.0,0 STARLINK-4646,1 53737U 22107AP  23239.96600668  .00000970  00000-0  79022-4 0  9997,2 53737  53.2172  95.2189 0001358  96.1033 264.0114 15.08843858 54210,6917.869,95.437,540.673,538.794,0.0
53737.0,STARLINK-4646,PAYLOAD,2023-08-28 07:07:59,15.08837578,0.0001349,53.2171,93.732,88.0684,272.0462,2.5795e-05,1.23e-06,0.0,0 STARLINK-4646,1 53737U 22107AP  23240.29721274  .00000123  00000-0  25795-4 0  9990,2 53737  53.2171  93.7320 0001349  88.0684 272.0462 15.08837578 54263,6917.888,95.438,540.686,538.82,0.0
53737.0,STARLINK-4646,PAYLOAD,2023-08-28 21:26:27,15.08836323,0.0001274,53.2169,91.0548,90.4381,269.6757,4.7084e-05,4.61e-06,0.0,0 STARLINK-4646,1 53737U 22107AP  23240.89337466  .00000461  00000-0  47084-4 0  9992,2 53737  53.2169  91.0548 0001274  90.4381 269.6757 15.08836323 55134,6917.892,95.438,540.638,538.875,0.0
53737.0,STARLINK-4646,PAYLOAD,2023-08-29 19:41:51,15.08840354,0.0001651,53.2179,86.8922,111.1289,248.988,2.6747e-05,1.38e-06,0.0,0 STARLINK-4646,1 53737U 22107AP  23241.82073520  .00000138  00000-0  26747-4 0  9998,2 53737  53.2179  86.8922 0001651 111.1289 248.9880 15.08840354 55271,6917.879,95.438,540.886,538.602,0.0
53737.0,STARLINK-4646,PAYLOAD,2023-08-30 19:32:38,15.08833743,0.0001468,53.2177,82.4324,91.1536,268.9624,0.00034612,5.224e-05,0.0,0 STARLINK-4646,1 53737U 22107AP  23242.81433470  .00005224  00000-0  34612-3 0  9992,2 53737  53.2177  82.4324 0001468  91.1536 268.9624 15.08833743 55424,6917.9,95.438,540.78,538.749,0.0
53737.0,STARLINK-4646,PAYLOAD,2023-08-30 22:43:24,15.08849862,0.0001543,53.2178,81.8378,87.3592,272.7576,0.00011372,1.523e-05,0.0,0 STARLINK-4646,1 53737U 22107AP  23242.94680724  .00001523  00000-0  11372-3 0  9998,2 53737  53.2178  81.8378 0001543  87.3592 272.7576 15.08849862 54663,6917.85,95.437,540.783,538.648,0.0
